GLOBALSTAR M094         
1 39074U 13005C   23337.60364705 -.00000089  00000+0  84760-4 0  9997
2 39074  51.9956  91.9705 0001019 118.1815 241.9155 12.62270120501452
GLOBALSTAR M096         
1 39075U 13005D   23337.45856950 -.00000101  00000+0  17531-4 0  9996
2 39075  52.0047 140.4901 0001373 102.6677 257.4343 12.62266738500350
GLOBALSTAR M078         
1 39076U 13005E   23336.87773356 -.00000165  00000+0 -34135-3 0  9999
2 39076  51.9871 227.5329 0001559  41.4636 318.6349 12.62264337499116
GLOBALSTAR M095         
1 39077U 13005F   23337.53762918 -.00000071  00000+0  18502-3 0  9991
2 39077  51.9791 223.0001 0001632  63.8593 296.2441 12.62271567498844
GLOBALSTAR M087         
1 52888U 22064A   23337.58664600 -.00000100  00000+0  53956-4 0  9991
2 52888  51.9737 173.9100 0008721 221.2993 138.7249 13.37559696 71211
